GPS BIIA-23 (PRN 18)    
1 22877U 93068A   19201.52561179 -.00000064  00000-0  00000+0 0  9991
2 22877  54.7089  67.1939 0153652  80.6889 301.0794  2.00562351188541
GPS BIIR-2  (PRN 13)    
1 24876U 97035A   19200.89137710  .00000043  00000-0  00000+0 0  9995
2 24876  55.4613 197.1876 0033410  70.0344 290.3240  2.00564419161123
GPS BIIR-3  (PRN 11)    
1 25933U 99055A   19201.25082498 -.00000083  00000-0  00000+0 0  9992
2 25933  52.1439  44.3993 0165276 109.8666  75.6145  2.00558399144955
GPS BIIR-4  (PRN 20)    
1 26360U 00025A   19201.17466295 -.00000018  00000-0  00000+0 0  9996
2 26360  53.3518 123.0637 0044509 139.1705  38.3916  2.00560322140649
GPS BIIR-5  (PRN 28)    
1 26407U 00040A   19200.45837743 -.00000065  00000-0  00000+0 0  9997
2 26407  56.2364 315.3247 0192481 276.0189  77.2032  2.00560536139304
GPS BIIR-6  (PRN 14)    
1 26605U 00071A   19201.19767337  .00000044  00000-0  00000+0 0  9990
2 26605  55.0362 194.6102 0109982 249.6987 189.2300  2.00557603136910
GPS BIIR-8  (PRN 16)    
1 27663U 03005A   19201.41324414 -.00000063  00000-0  00000+0 0  9997
2 27663  56.2953 315.0620 0106269  32.4382  53.5849  2.00571926120682
GPS BIIR-9  (PRN 21)    
1 27704U 03010A   19201.09705036 -.00000065  00000-0  00000+0 0  9998
2 27704  54.3843  66.6706 0247226 278.1937 260.8173  2.00560784119471
GPS BIIR-10 (PRN 22)    
1 28129U 03058A   19201.08717915 -.00000016  00000-0  00000+0 0  9996
2 28129  53.1635 125.8460 0073212 284.3994  74.7899  2.00553728114177
GPS BIIR-11 (PRN 19)    
1 28190U 04009A   19200.83851402 -.00000085  00000-0  00000+0 0  9999
2 28190  56.2739  15.8573 0093638  83.2646 100.1899  2.00568008112349
GPS BIIR-12 (PRN 23)    
1 28361U 04023A   19200.45031108  .00000034  00000-0  00000+0 0  9999
2 28361  54.0526 188.9741 0135280 232.3142 306.7016  2.00577558110428
GPS BIIR-13 (PRN 02)    
1 28474U 04045A   19201.09922449 -.00000064  00000-0  00000+0 0  9990
2 28474  54.7404  66.4340 0191356 261.1161  23.3715  2.00554924107805
GPS BIIRM-1 (PRN 17)    
1 28874U 05038A   19201.05378135 -.00000085  00000-0  00000+0 0  9993
2 28874  56.3946  13.2051 0130976 262.0226  94.0730  2.00553003101207
GPS BIIRM-2 (PRN 31)    
1 29486U 06042A   19201.29676323  .00000014  00000-0  00000+0 0  9996
2 29486  54.9843 251.7144 0092268 359.1521  98.5260  2.00566014 93928
GPS BIIRM-3 (PRN 12)    
1 29601U 06052A   19201.10875457 -.00000062  00000-0  00000+0 0  9999
2 29601  56.2763 313.9906 0073488  62.3808 298.3878  2.00571564 92834
GPS BIIRM-4 (PRN 15)    
1 32260U 07047A   19200.92343630  .00000034  00000-0  00000+0 0  9999
2 32260  53.1759 184.6145 0113247  44.3497 316.5287  2.00557220 86204
GPS BIIRM-5 (PRN 29)    
1 32384U 07062A   19201.48979008 -.00000082  00000-0  00000+0 0  9993
2 32384  56.4800  13.8309 0009880 109.8429  73.7171  2.00558517 84952
GPS BIIRM-6 (PRN 07)    
1 32711U 08012A   19201.32978811  .00000015  00000-0  00000+0 0  9992
2 32711  54.7248 250.8954 0131733 220.5813 138.5094  2.00555695 83130
GPS BIIRM-8 (PRN 05)    
1 35752U 09043A   19201.54803413 -.00000008  00000-0  00000+0 0  9997
2 35752  54.4426 128.5456 0056290  40.6456 142.6422  2.00556816 72729
GPS BIIF-1  (PRN 25)    
1 36585U 10022A   19199.65344958 -.00000062  00000-0  00000+0 0  9993
2 36585  55.5558 310.3252 0082190  50.8531 307.0866  2.00562405 66938
GPS BIIF-2  (PRN 01)    
1 37753U 11036A   19201.28590833 -.00000059  00000-0  00000+0 0  9991
2 37753  55.9381  70.4284 0088841  41.1467 143.8929  2.00566763 58649
GPS BIIF-3  (PRN 24)    
1 38833U 12053A   19200.52001364  .00000018  00000-0  00000+0 0  9997
2 38833  53.7613 247.0978 0082755  33.1765 327.4212  2.00559150 49697
GPS BIIF-4  (PRN 27)    
1 39166U 13023A   19200.37770691 -.00000089  00000-0  00000+0 0  9993
2 39166  56.0745   9.9951 0070556  27.8750 332.5141  2.00567280 45232
GPS BIIF-5  (PRN 30)    
1 39533U 14008A   19201.37117181  .00000011  00000-0  00000+0 0  9999
2 39533  53.8900 252.4619 0042182 195.1440 164.8098  2.00550930 39619
GPS BIIF-6  (PRN 06)    
1 39741U 14026A   19201.15461204 -.00000059  00000-0  00000+0 0  9997
2 39741  55.9172  69.9592 0016239 294.3849  65.5182  2.00570139 37896
GPS BIIF-7  (PRN 09)    
1 40105U 14045A   19201.24739476  .00000042  00000-0  00000+0 0  9994
2 40105  54.5792 189.2646 0009972 100.6952 259.4026  2.00567861 36349
GPS BIIF-8  (PRN 03)    
1 40294U 14068A   19201.11699749 -.00000007  00000-0  00000+0 0  9994
2 40294  55.1943 130.1435 0022227  32.5474 327.5835  2.00554907 34568
GPS BIIF-9  (PRN 26)    
1 40534U 15013A   19201.25483042 -.00000060  00000-0  00000+0 0  9993
2 40534  54.4809 308.5680 0037187   5.4783 354.5961  2.00567804 31639
GPS BIIF-10  (PRN 08)   
1 40730U 15033A   19200.42178434 -.00000090  00000-0  00000+0 0  9990
2 40730  55.5985   9.3190 0044491 345.4795  14.4048  2.00552821 29371
GPS BIIF-11  (PRN 10)   
1 41019U 15062A   19199.96816603 -.00000018  00000-0  00000+0 0  9996
2 41019  55.1945 130.0055 0047647 207.4137 152.3230  2.00564694 27182
GPS BIIF-12  (PRN 32)   
1 41328U 16007A   19200.55986006  .00000036  00000-0  00000+0 0  9991
2 41328  54.8219 189.6901 0033457 220.9840 138.7505  2.00571184 25251
